NORAD_CAT_ID,OBJECT_NAME,OBJECT_TYPE,EPOCH,MEAN_MOTION,ECCENTRICITY,INCLINATION,RA_OF_ASC_NODE,ARG_OF_PERICENTER,MEAN_ANOMALY,BSTAR,MEAN_MOTION_DOT,MEAN_MOTION_DDOT,TLE_LINE0,TLE_LINE1,TLE_LINE2,SEMIMAJOR_AXIS,PERIOD,APOGEE,PERIGEE,DECAYED
53987.0,STARLINK-5112,PAYLOAD,2024-07-03 01:45:54,15.0884701,0.0001109,53.2153,93.4287,88.9032,271.2087,-0.0001415,-2.54e-05,0.0,0 STARLINK-5112,1 53987U 22125Z   24185.07354520 -.00002540  00000-0 -14150-3 0  9997,2 53987  53.2153  93.4287 0001109  88.9032 271.2087 15.08847010 96744,6917.859,95.437,540.491,538.957,0.0
53987.0,STARLINK-5112,PAYLOAD,2024-07-03 22:25:55,15.08836538,0.0001146,53.2144,89.5609,134.9531,225.1554,2.5182e-06,-2.48e-06,0.0,0 STARLINK-5112,1 53987U 22125Z   24185.93466618 -.00000248  00000-0  25182-5 0  9995,2 53987  53.2144  89.5609 0001146 134.9531 225.1554 15.08836538 96802,6917.891,95.438,540.549,538.963,0.0
53987.0,STARLINK-5112,PAYLOAD,2024-07-04 03:12:04,15.08843274,0.0001379,53.2162,88.6715,108.4344,251.6798,3.3793e-05,2.5e-06,0.0,0 STARLINK-5112,1 53987U 22125Z   24186.13338723  .00000250  00000-0  33793-4 0  9991,2 53987  53.2162  88.6715 0001379 108.4344 251.6798 15.08843274 96906,6917.87,95.437,540.689,538.781,0.0
53987.0,STARLINK-5112,PAYLOAD,2024-07-04 11:09:00,15.08848937,0.000139,53.2168,87.1856,104.1711,255.9435,0.00011394,1.526e-05,0.0,0 STARLINK-5112,1 53987U 22125Z   24186.46458387  .00001526  00000-0  11394-3 0  9995,2 53987  53.2168  87.1856 0001390 104.1711 255.9435 15.08848937 96889,6917.853,95.437,540.68,538.756,0.0
53987.0,STARLINK-5112,PAYLOAD,2024-07-04 22:16:42,15.08840562,0.0001335,53.2176,85.1057,98.0561,262.0583,0.00020162,2.922e-05,0.0,0 STARLINK-5112,1 53987U 22125Z   24186.92826836  .00002922  00000-0  20162-3 0  9998,2 53987  53.2176  85.1057 0001335  98.0561 262.0583 15.08840562 96959,6917.879,95.438,540.667,538.82,0.0
53987.0,STARLINK-5112,PAYLOAD,2024-07-04 23:52:05,15.08840424,0.000138,53.2158,84.8089,91.7493,268.3657,0.00019662,2.843e-05,0.0,0 STARLINK-5112,1 53987U 22125Z   24186.99450851  .00002843  00000-0  19662-3 0  9990,2 53987  53.2158  84.8089 0001380  91.7493 268.3657 15.08840424 96963,6917.879,95.438,540.699,538.789,0.0
53987.0,STARLINK-5112,PAYLOAD,2024-07-05 20:32:06,15.08838288,0.0001314,53.2164,80.9427,89.6719,270.4424,0.0001052,1.387e-05,0.0,0 STARLINK-5112,1 53987U 22125Z   24187.85563073  .00001387  00000-0  10520-3 0  9993,2 53987  53.2164  80.9427 0001314  89.6719 270.4424 15.08838288 97161,6917.886,95.438,540.66,538.842,0.0
53987.0,STARLINK-5112,PAYLOAD,2024-07-05 22:07:29,15.08836818,0.0001235,53.2168,80.6455,87.6482,272.4652,7.5757e-05,9.18e-06,0.0,0 STARLINK-5112,1 53987U 22125Z   24187.92187165  .00000918  00000-0  75757-4 0  9998,2 53987  53.2168  80.6455 0001235  87.6482 272.4652 15.08836818 97106,6917.89,95.438,540.609,538.901,0.0
53987.0,STARLINK-5112,PAYLOAD,2024-07-06 09:15:11,15.08842929,0.0001167,53.2172,78.5652,94.4575,265.6551,4.2281e-05,3.85e-06,0.0,0 STARLINK-5112,1 53987U 22125Z   24188.38554843  .00000385  00000-0  42281-4 0  9994,2 53987  53.2172  78.5652 0001167  94.4575 265.6551 15.08842929 97178,6917.871,95.437,540.544,538.929,0.0
53987.0,STARLINK-5112,PAYLOAD,2024-07-06 20:22:54,15.08826435,0.0001303,53.2185,76.4861,91.0452,269.0689,1.2501e-05,-8.9e-07,0.0,0 STARLINK-5112,1 53987U 22125Z   24188.84924206 -.00000089  00000-0  12501-4 0  9993,2 53987  53.2185  76.4861 0001303  91.0452 269.0689 15.08826435 97310,6917.922,95.438,540.688,538.885,0.0
53987.0,STARLINK-5112,PAYLOAD,2024-07-06 21:58:17,15.08825886,0.0001256,53.2183,76.1888,89.7243,270.3893,3.62e-05,2.88e-06,0.0,0 STARLINK-5112,1 53987U 22125Z   24188.91548189  .00000288  00000-0  36200-4 0  9995,2 53987  53.2183  76.1888 0001256  89.7243 270.3893 15.08825886 97257,6917.924,95.438,540.657,538.92,0.0
53987.0,STARLINK-5112,PAYLOAD,2024-07-07 09:05:58,15.08838434,0.0001099,53.219,74.1089,97.1375,262.9742,6.845e-05,8.02e-06,0.0,0 STARLINK-5112,1 53987U 22125Z   24189.37915408  .00000802  00000-0  68450-4 0  9992,2 53987  53.2190  74.1089 0001099  97.1375 262.9742 15.08838434 97398,6917.885,95.438,540.51,538.99,0.0
53987.0,STARLINK-5112,PAYLOAD,2024-07-08 08:56:45,15.08847659,0.0001217,53.2182,69.6461,94.9612,265.1519,0.00016747,2.379e-05,0.0,0 STARLINK-5112,1 53987U 22125Z   24190.37274734  .00002379  00000-0  16747-3 0  9996,2 53987  53.2182  69.6461 0001217  94.9612 265.1519 15.08847659 97546,6917.857,95.437,540.564,538.88,0.0
53987.0,STARLINK-5112,PAYLOAD,2024-07-08 20:04:28,15.0883381,0.0001397,53.219,67.5666,100.8822,259.2327,0.00012573,1.713e-05,0.0,0 STARLINK-5112,1 53987U 22125Z   24190.83644016  .00001713  00000-0  12573-3 0  9995,2 53987  53.2190  67.5666 0001397 100.8822 259.2327 15.08833810 97611,6917.899,95.438,540.731,538.798,0.0
53987.0,STARLINK-5112,PAYLOAD,2024-07-08 21:39:51,15.0883309,0.0001487,53.2191,67.27,99.054,261.0621,8.7605e-05,1.106e-05,0.0,0 STARLINK-5112,1 53987U 22125Z   24190.90268148  .00001106  00000-0  87605-4 0  9996,2 53987  53.2191  67.2700 0001487  99.0540 261.0621 15.08833090 97555,6917.902,95.438,540.795,538.738,0.0
53987.0,STARLINK-5112,PAYLOAD,2024-07-09 08:47:32,15.08848634,0.0001274,53.2183,65.1846,85.6611,274.4527,0.00012618,1.721e-05,0.0,0 STARLINK-5112,1 53987U 22125Z   24191.36634977  .00001721  00000-0  12618-3 0  9998,2 53987  53.2183  65.1846 0001274  85.6611 274.4527 15.08848634 97696,6917.854,95.437,540.6,538.838,0.0
53987.0,STARLINK-5112,PAYLOAD,2024-07-09 19:55:15,15.08831666,0.0001254,53.2182,63.1038,85.4886,274.6249,3.5861e-05,2.83e-06,0.0,0 STARLINK-5112,1 53987U 22125Z   24191.83004421  .00000283  00000-0  35861-4 0  9993,2 53987  53.2182  63.1038 0001254  85.4886 274.6249 15.08831666 97764,6917.906,95.438,540.638,538.903,0.0
53987.0,STARLINK-5112,PAYLOAD,2024-07-09 21:30:38,15.08837264,0.0001183,53.2172,62.8058,81.5199,278.5927,-1.8077e-05,-5.75e-06,0.0,0 STARLINK-5112,1 53987U 22125Z   24191.89628234 -.00000575  00000-0 -18077-4 0  9999,2 53987  53.2172  62.8058 0001183  81.5199 278.5927 15.08837264 97706,6917.889,95.438,540.572,538.935,0.0
53987.0,STARLINK-5112,PAYLOAD,2024-07-10 00:41:24,15.08837885,0.000122,53.2158,62.2101,81.3776,278.7355,-5.4339e-05,-1.152e-05,0.0,0 STARLINK-5112,1 53987U 22125Z   24192.02875639 -.00001152  00000-0 -54339-4 0  9991,2 53987  53.2158  62.2101 0001220  81.3776 278.7355 15.08837885 97799,6917.887,95.438,540.596,538.908,0.0
53987.0,STARLINK-5112,PAYLOAD,2024-07-10 08:38:20,15.08842325,0.0001233,53.2158,60.7241,82.7731,277.3401,2.6843e-05,1.39e-06,0.0,0 STARLINK-5112,1 53987U 22125Z   24192.35995482  .00000139  00000-0  26843-4 0  9997,2 53987  53.2158  60.7241 0001233  82.7731 277.3401 15.08842325 97777,6917.873,95.437,540.591,538.885,0.0
53987.0,STARLINK-5112,PAYLOAD,2024-07-10 21:21:25,15.08840729,0.0001248,53.2166,58.3447,83.2713,276.8421,8.8632e-05,1.123e-05,0.0,0 STARLINK-5112,1 53987U 22125Z   24192.88987766  .00001123  00000-0  88632-4 0  9999,2 53987  53.2166  58.3447 0001248  83.2713 276.8421 15.08840729 97850,6917.878,95.438,540.607,538.88,0.0
53987.0,STARLINK-5112,PAYLOAD,2024-07-11 00:32:11,15.08844136,0.000125,53.217,57.7495,84.8515,275.262,0.00014148,1.965e-05,0.0,0 STARLINK-5112,1 53987U 22125Z   24193.02235602  .00001965  00000-0  14148-3 0  9995,2 53987  53.2170  57.7495 0001250  84.8515 275.2620 15.08844136 97873,6917.868,95.437,540.597,538.868,0.0
53987.0,STARLINK-5112,PAYLOAD,2024-07-11 21:12:12,15.08844664,0.0001311,53.2176,53.8837,85.4806,274.6336,0.00026624,3.952e-05,0.0,0 STARLINK-5112,1 53987U 22125Z   24193.88347684  .00003952  00000-0  26624-3 0  9993,2 53987  53.2176  53.8837 0001311  85.4806 274.6336 15.08844664 98003,6917.866,95.437,540.638,538.824,0.0
53987.0,STARLINK-5112,PAYLOAD,2024-07-12 08:19:54,15.08848416,0.0001254,53.218,51.8023,83.5167,276.5968,0.00019211,2.772e-05,0.0,0 STARLINK-5112,1 53987U 22125Z   24194.34715383  .00002772  00000-0  19211-3 0  9993,2 53987  53.2180  51.8023 0001254  83.5167 276.5968 15.08848416 98144,6917.855,95.437,540.587,538.852,0.0
53987.0,STARLINK-5112,PAYLOAD,2024-07-12 19:27:36,15.08837007,0.0001472,53.219,49.7211,86.3696,273.7465,0.00013003,1.782e-05,0.0,0 STARLINK-5112,1 53987U 22125Z   24194.81084000  .00001782  00000-0  13003-3 0  9993,2 53987  53.2190  49.7211 0001472  86.3696 273.7465 15.08837007 98213,6917.89,95.438,540.773,538.736,0.0
53987.0,STARLINK-5112,PAYLOAD,2024-07-13 00:13:45,15.08841232,0.0001475,53.2186,48.827,97.3104,262.8056,3.7762e-05,3.13e-06,0.0,0 STARLINK-5112,1 53987U 22125Z   24195.00955657  .00000313  00000-0  37762-4 0  9998,2 53987  53.2186  48.8270 0001475  97.3104 262.8056 15.08841232 98177,6917.877,95.437,540.762,538.721,0.0
53987.0,STARLINK-5112,PAYLOAD,2024-07-13 20:53:46,15.08838933,0.0001291,53.2189,44.9631,93.416,266.698,2.8572e-05,1.67e-06,0.0,0 STARLINK-5112,1 53987U 22125Z   24195.87067974  .00000167  00000-0  28572-4 0  9995,2 53987  53.2189  44.9631 0001291  93.4160 266.6980 15.08838933 98377,6917.884,95.438,540.642,538.856,0.0
53987.0,STARLINK-5112,PAYLOAD,2024-07-14 00:04:33,15.08825872,0.0001352,53.219,44.368,97.0831,263.0314,0.00023853,3.509e-05,0.0,0 STARLINK-5112,1 53987U 22125Z   24196.00316346  .00003509  00000-0  23853-3 0  9990,2 53987  53.2190  44.3680 0001352  97.0831 263.0314 15.08825872 98392,6917.924,95.438,540.724,538.853,0.0
53987.0,STARLINK-5112,PAYLOAD,2024-07-14 06:26:05,15.08843873,0.0001342,53.2188,43.1788,94.6574,265.4571,5.8061e-05,6.36e-06,0.0,0 STARLINK-5112,1 53987U 22125Z   24196.26811573  .00000636  00000-0  58061-4 0  9998,2 53987  53.2188  43.1788 0001342  94.6574 265.4571 15.08843873 98438,6917.869,95.437,540.662,538.805,0.0
53987.0,STARLINK-5112,PAYLOAD,2024-07-14 14:23:01,15.08835765,0.0001322,53.2186,41.6922,95.0916,265.0227,6.5337e-05,7.52e-06,0.0,0 STARLINK-5112,1 53987U 22125Z   24196.59932092  .00000752  00000-0  65337-4 0  9997,2 53987  53.2186  41.6922 0001322  95.0916 265.0227 15.08835765 98415,6917.893,95.438,540.673,538.844,0.0
